start=new Date('2023-07-03T00:00:00.000Z').valueOf();
sats=[{"EPHEMERIS_TYPE":"0","MEAN_ELEMENT_THEORY":"SGP4","TLE_LINE2":"2 47809  53.0554 335.7307 0001232 104.9902 255.1224 15.06404139128389","RCS_SIZE":"LARGE","MEAN_ANOMALY":"255.1224","MEAN_MOTION_DDOT":"0.0000000000000","REV_AT_EPOCH":"12838","LAUNCH_DATE":"2021-03-11","OBJECT_NAME":"STARLINK-2390","SITE":"AFETR","RA_OF_ASC_NODE":"335.7307","OBJECT_ID":"2021-018Y","GP_ID":"234677891","ELEMENT_SET_NO":"999","TIME_SYSTEM":"UTC","PERIAPSIS":"546.348","DECAY_DATE":null,"INCLINATION":"53.0554","TLE_LINE1":"1 47809U 21018Y   23183.63552894  .00005573  00000-0  39269-3 0  9991","COUNTRY_CODE":"US","APOAPSIS":"548.054","BSTAR":"0.00039269000000","MEAN_MOTION_DOT":"0.00005573","ARG_OF_PERICENTER":"104.9902","CENTER_NAME":"EARTH","ECCENTRICITY":"0.00012320","FILE":"3947896","PERIOD":"95.592","EPOCH":"2023-07-02T15:15:09.700416","CLASSIFICATION_TYPE":"U","NORAD_CAT_ID":"47809","OBJECT_TYPE":"PAYLOAD","REF_FRAME":"TEME","MEAN_MOTION":"15.06404139","SEMIMAJOR_AXIS":"6925.336"},{"REF_FRAME":"TEME","MEAN_MOTION":"15.06406717","SEMIMAJOR_AXIS":"6925.328","NORAD_CAT_ID":"47810","OBJECT_TYPE":"PAYLOAD","EPOCH":"2023-07-02T15:52:20.277120","CLASSIFICATION_TYPE":"U","PERIOD":"95.592","FILE":"3947862","ECCENTRICITY":"0.00018070","CENTER_NAME":"EARTH","MEAN_MOTION_DOT":"0.00003533","ARG_OF_PERICENTER":"133.4560","BSTAR":"0.00025592000000","PERIAPSIS":"545.942","DECAY_DATE":null,"TLE_LINE1":"1 47810U 21018Z   23183.66134580  .00003533  00000-0  25592-3 0  9992","COUNTRY_CODE":"US","APOAPSIS":"548.444","INCLINATION":"53.0549","GP_ID":"234677926","ELEMENT_SET_NO":"999","TIME_SYSTEM":"UTC","RA_OF_ASC_NODE":"345.6281","OBJECT_ID":"2021-018Z","LAUNCH_DATE":"2021-03-11","OBJECT_NAME":"STARLINK-2391","SITE":"AFETR","RCS_SIZE":"LARGE","MEAN_ANOMALY":"226.6579","MEAN_MOTION_DDOT":"0.0000000000000","REV_AT_EPOCH":"12824","MEAN_ELEMENT_THEORY":"SGP4","EPHEMERIS_TYPE":"0","TLE_LINE2":"2 47810  53.0549 345.6281 0001807 133.4560 226.6579 15.06406717128246"},{"LAUNCH_DATE":"2021-03-11","SITE":"AFETR","OBJECT_NAME":"STARLINK-2392","RA_OF_ASC_NODE":"318.1258","OBJECT_ID":"2021-018AA","MEAN_ELEMENT_THEORY":"SGP4","EPHEMERIS_TYPE":"0","TLE_LINE2":"2 47811  53.0549 318.1258 0000884  88.5458 271.5633 15.06391006128587","RCS_SIZE":"LARGE","MEAN_ANOMALY":"271.5633","MEAN_MOTION_DDOT":"0.0000000000000","REV_AT_EPOCH":"12858","DECAY_DATE":null,"PERIAPSIS":"546.629","COUNTRY_CODE":"US","TLE_LINE1":"1 47811U 21018AA  23183.10386318  .00000542  00000-0  55267-4 0  9990","INCLINATION":"53.0549","APOAPSIS":"547.853","GP_ID":"234670820","ELEMENT_SET_NO":"999","TIME_SYSTEM":"UTC","CENTER_NAME":"EARTH","FILE":"3947592","ECCENTRICITY":"0.00008840","BSTAR":"0.00005526700000","MEAN_MOTION_DOT":"0.00000542","ARG_OF_PERICENTER":"88.5458","NORAD_CAT_ID":"47811","OBJECT_TYPE":"PAYLOAD","REF_FRAME":"TEME","MEAN_MOTION":"15.06391006","SEMIMAJOR_AXIS":"6925.376","PERIOD":"95.593","CLASSIFICATION_TYPE":"U","EPOCH":"2023-07-02T02:29:33.778752"},{"TLE_LINE1":"1 47812U 21018AB  23183.60605836  .00000340  00000-0  41719-4 0  9998","COUNTRY_CODE":"US","APOAPSIS":"548.150","INCLINATION":"53.0548","DECAY_DATE":null,"PERIAPSIS":"546.300","TIME_SYSTEM":"UTC","ELEMENT_SET_NO":"999","GP_ID":"234677113","OBJECT_NAME":"STARLINK-2393","SITE":"AFETR","LAUNCH_DATE":"2021-03-11","RA_OF_ASC_NODE":"345.8737","OBJECT_ID":"2021-018AB","TLE_LINE2":"2 47812  53.0548 345.8737 0001336  30.5932 329.5134 15.06396310128238","MEAN_ELEMENT_THEORY":"SGP4","EPHEMERIS_TYPE":"0","MEAN_MOTION_DDOT":"0.0000000000000","REV_AT_EPOCH":"12823","MEAN_ANOMALY":"329.5134","RCS_SIZE":"LARGE","NORAD_CAT_ID":"47812","OBJECT_TYPE":"PAYLOAD","MEAN_MOTION":"15.06396310","SEMIMAJOR_AXIS":"6925.360","REF_FRAME":"TEME","PERIOD":"95.592","EPOCH":"2023-07-02T14:32:43.442304","CLASSIFICATION_TYPE":"U","CENTER_NAME":"EARTH","FILE":"3947836","ECCENTRICITY":"0.00013360","BSTAR":"0.00004171900000","ARG_OF_PERICENTER":"30.5932","MEAN_MOTION_DOT":"0.00000340"},{"DECAY_DATE":null,"PERIAPSIS":"546.594","TLE_LINE1":"1 47813U 21018AC  23183.65674043  .00003189  00000-0  23289-3 0  9995","COUNTRY_CODE":"US","APOAPSIS":"547.831","INCLINATION":"53.0560","GP_ID":"234677773","ELEMENT_SET_NO":"999","TIME_SYSTEM":"UTC","RA_OF_ASC_NODE":"315.6456","OBJECT_ID":"2021-018AC","LAUNCH_DATE":"2021-03-11","OBJECT_NAME":"STARLINK-2394","SITE":"AFETR","RCS_SIZE":"LARGE","MEAN_ANOMALY":"271.2096","REV_AT_EPOCH":"12866","MEAN_MOTION_DDOT":"0.0000000000000","EPHEMERIS_TYPE":"0","MEAN_ELEMENT_THEORY":"SGP4","TLE_LINE2":"2 47813  53.0560 315.6456 0000893  88.8995 271.2096 15.06400235128667","REF_FRAME":"TEME","SEMIMAJOR_AXIS":"6925.348","MEAN_MOTION":"15.06400235","OBJECT_TYPE":"PAYLOAD","NORAD_CAT_ID":"47813","EPOCH":"2023-07-02T15:45:42.373152","CLASSIFICATION_TYPE":"U","PERIOD":"95.592","ECCENTRICITY":"0.00008930","FILE":"3947858","CENTER_NAME":"EARTH","MEAN_MOTION_DOT":"0.00003189","ARG_OF_PERICENTER":"88.8995","BSTAR":"0.00023289000000"},{"CENTER_NAME":"EARTH","FILE":"3947806","ECCENTRICITY":"0.00008660","BSTAR":"0.00032590000000","MEAN_MOTION_DOT":"0.00004576","ARG_OF_PERICENTER":"80.2577","NORAD_CAT_ID":"47814","OBJECT_TYPE":"PAYLOAD","REF_FRAME":"TEME","MEAN_MOTION":"15.06400280","SEMIMAJOR_AXIS":"6925.348","PERIOD":"95.592","EPOCH":"2023-07-02T16:20:12.383232","CLASSIFICATION_TYPE":"U","LAUNCH_DATE":"2021-03-11","SITE":"AFETR","OBJECT_NAME":"STARLINK-2395","RA_OF_ASC_NODE":"335.5417","OBJECT_ID":"2021-018AD","MEAN_ELEMENT_THEORY":"SGP4","EPHEMERIS_TYPE":"0","TLE_LINE2":"2 47814  53.0541 335.5417 0000866  80.2577 279.8510 15.06400280128404","MEAN_ANOMALY":"279.8510","RCS_SIZE":"LARGE","MEAN_MOTION_DDOT":"0.0000000000000","REV_AT_EPOCH":"12840","PERIAPSIS":"546.613","DECAY_DATE":null,"COUNTRY_CODE":"US","TLE_LINE1":"1 47814U 21018AD  23183.68069888  .00004576  00000-0  32590-3 0  9990","INCLINATION":"53.0541","APOAPSIS":"547.812","ELEMENT_SET_NO":"999","GP_ID":"234676020","TIME_SYSTEM":"UTC"},{"MEAN_MOTION":"15.06396823","SEMIMAJOR_AXIS":"6925.358","REF_FRAME":"TEME","NORAD_CAT_ID":"47815","OBJECT_TYPE":"PAYLOAD","CLASSIFICATION_TYPE":"U","EPOCH":"2023-07-02T10:43:49.522080","PERIOD":"95.592","ECCENTRICITY":"0.00012490","FILE":"3947600","CENTER_NAME":"EARTH","ARG_OF_PERICENTER":"102.6773","MEAN_MOTION_DOT":"-0.00003782","BSTAR":"-0.00023514000000","TLE_LINE1":"1 47815U 21018AE  23183.44710095 -.00003782  00000-0 -23514-3 0  9994","COUNTRY_CODE":"US","INCLINATION":"53.0557","APOAPSIS":"548.088","PERIAPSIS":"546.358","DECAY_DATE":null,"TIME_SYSTEM":"UTC","GP_ID":"234670871","ELEMENT_SET_NO":"999","RA_OF_ASC_NODE":"331.5883","OBJECT_ID":"2021-018AE","OBJECT_NAME":"STARLINK-2396","SITE":"AFETR","LAUNCH_DATE":"2021-03-11","MEAN_MOTION_DDOT":"0.0000000000000","REV_AT_EPOCH":"12843","MEAN_ANOMALY":"257.4356","RCS_SIZE":"LARGE","TLE_LINE2":"2 47815  53.0557 331.5883 0001249 102.6773 257.4356 15.06396823128438","EPHEMERIS_TYPE":"0","MEAN_ELEMENT_THEORY":"SGP4"},{"PERIAPSIS":"546.228","DECAY_DATE":null,"TLE_LINE1":"1 47816U 21018AF  23183.45585286 -.00002305  00000-0 -13586-3 0  9996","COUNTRY_CODE":"US","APOAPSIS":"548.189","INCLINATION":"53.0556","GP_ID":"234670872","ELEMENT_SET_NO":"999","TIME_SYSTEM":"UTC","LAUNCH_DATE":"2021-03-11","SITE":"AFETR","OBJECT_NAME":"STARLINK-2399","RA_OF_ASC_NODE":"336.5497","OBJECT_ID":"2021-018AF","MEAN_ELEMENT_THEORY":"SGP4","EPHEMERIS_TYPE":"0","TLE_LINE2":"2 47816  53.0556 336.5497 0001416 106.8133 253.3011 15.06401611128363","MEAN_ANOMALY":"253.3011","RCS_SIZE":"LARGE","MEAN_MOTION_DDOT":"0.0000000000000","REV_AT_EPOCH":"12836","NORAD_CAT_ID":"47816","OBJECT_TYPE":"PAYLOAD","REF_FRAME":"TEME","MEAN_MOTION":"15.06401611","SEMIMAJOR_AXIS":"6925.344","PERIOD":"95.592","CLASSIFICATION_TYPE":"U","EPOCH":"2023-07-02T10:56:25.687104","CENTER_NAME":"EARTH","FILE":"3947600","ECCENTRICITY":"0.00014160","BSTAR":"-0.00013586000000","MEAN_MOTION_DOT":"-0.00002305","ARG_OF_PERICENTER":"106.8133"},{"NORAD_CAT_ID":"47817","OBJECT_TYPE":"PAYLOAD","MEAN_MOTION":"15.06392250","SEMIMAJOR_AXIS":"6925.372","REF_FRAME":"TEME","PERIOD":"95.593","CLASSIFICATION_TYPE":"U","EPOCH":"2023-07-02T14:34:02.589024","CENTER_NAME":"EARTH","ECCENTRICITY":"0.00011140","FILE":"3947843","BSTAR":"-0.00012258000000","ARG_OF_PERICENTER":"87.0427","MEAN_MOTION_DOT":"-0.00002106","COUNTRY_CODE":"US","TLE_LINE1":"1 47817U 21018AG  23183.60697441 -.00002106  00000-0 -12258-3 0  9995","APOAPSIS":"548.009","INCLINATION":"53.0548","PERIAPSIS":"546.466","DECAY_DATE":null,"TIME_SYSTEM":"UTC","GP_ID":"234677144","ELEMENT_SET_NO":"999","SITE":"AFETR","OBJECT_NAME":"STARLINK-2400","LAUNCH_DATE":"2021-03-11","RA_OF_ASC_NODE":"335.8682","OBJECT_ID":"2021-018AG","TLE_LINE2":"2 47817  53.0548 335.8682 0001114  87.0427 273.0689 15.06392250128384","MEAN_ELEMENT_THEORY":"SGP4","EPHEMERIS_TYPE":"0","MEAN_MOTION_DDOT":"0.0000000000000","REV_AT_EPOCH":"12838","RCS_SIZE":"LARGE","MEAN_ANOMALY":"273.0689"},{"ECCENTRICITY":"0.00016590","FILE":"3947646","CENTER_NAME":"EARTH","ARG_OF_PERICENTER":"72.4588","MEAN_MOTION_DOT":"0.00002659","BSTAR":"0.00019732000000","MEAN_MOTION":"15.06401682","SEMIMAJOR_AXIS":"6925.343","REF_FRAME":"TEME","NORAD_CAT_ID":"47818","OBJECT_TYPE":"PAYLOAD","CLASSIFICATION_TYPE":"U","EPOCH":"2023-07-02T04:03:04.139424","PERIOD":"95.592","OBJECT_ID":"2021-018AH","RA_OF_ASC_NODE":"342.8306","OBJECT_NAME":"STARLINK-2401","SITE":"AFETR","LAUNCH_DATE":"2021-03-11","MEAN_MOTION_DDOT":"0.0000000000000","REV_AT_EPOCH":"12825","RCS_SIZE":"LARGE","MEAN_ANOMALY":"287.6582","TLE_LINE2":"2 47818  53.0536 342.8306 0001659  72.4588 287.6582 15.06401682128252","MEAN_ELEMENT_THEORY":"SGP4","EPHEMERIS_TYPE":"0","COUNTRY_CODE":"US","TLE_LINE1":"1 47818U 21018AH  23183.16879791  .00002659  00000-0  19732-3 0  9992","APOAPSIS":"548.357","INCLINATION":"53.0536","DECAY_DATE":null,"PERIAPSIS":"546.059","TIME_SYSTEM":"UTC","GP_ID":"234671524","ELEMENT_SET_NO":"999"}];
